ES'HAIL 2               
1 43700U 18090A   24008.00743782  .00000171  00000+0  00000+0 0  9994
2 43700   0.0174  71.8896 0002353 262.6353 161.0207  1.00274445 18741
FOX-1CLIFF (AO-95)      
1 43770U 18099N   24008.12227640  .00006311  00000+0  47535-3 0  9993
2 43770  97.5700  69.5811 0014464 188.5567 171.5414 15.02758692278353
ITASAT                  
1 43786U 18099AE  24008.14294611  .00003862  00000+0  29972-3 0  9997
2 43786  97.5366  70.0662 0019064 168.1927 191.9749 15.01790239278386
JY1SAT (JO-97)          
1 43803U 18099AX  24008.13059135  .00006248  00000+0  45633-3 0  9999
2 43803  97.5452  70.6110 0011430 129.1282 231.0962 15.03958931278465
UWE-4                   
1 43880U 18111E   24008.30185276  .00006395  00000+0  44541-3 0  9994
2 43880  97.6227 275.5803 0016939 192.0337 168.0487 15.05675661275191
JAISAT-1                
1 44419U 19038F   24008.48594339  .00045347  00000+0  91029-3 0  9998
2 44419  97.6833   4.3820 0007465 296.2960  63.7521 15.46516344250070
DUCHIFAT-3              
1 44854U 19089C   24008.15224698  .00010343  00000+0  61238-3 0  9996
2 44854  36.9611 302.3033 0009237 223.7487 136.2527 15.10880191223862
TIANYAN 01              
1 44881U 19093C   24008.57176460  .00001137  00000+0  14559-3 0  9995
2 44881  97.8453  88.4180 0015691 124.9111 235.3580 14.83145204219238
RS-44 & BREEZE-KM R/B   
1 44909U 19096E   24008.60614825  .00000057  00000+0  17688-3 0  9991
2 44909  82.5197 211.4479 0218318  66.7961 295.5970 12.79725485188437
BY70-2                  
1 45857U 20042B   24008.56555927  .00032549  00000+0  23961-2 0  9990
2 45857  97.9244  95.7728 0007118  38.8898 321.2838 15.03265646190246
SALSAT                  
1 46495U 20068K   24008.42721840  .00005533  00000+0  34051-3 0  9997
2 46495  97.7963 324.2565 0015694 136.7636 223.4827 15.10337965180024
RADFXSAT-2 (AO-109)     
1 47311U 21002C   24008.33141827  .00066632  00000+0  83539-3 0  9997
2 47311  60.6748 340.2861 0028819  57.4015 302.9865 15.58800209166029
UVSQ-SAT                
1 47438U 21006AB  24008.46861391  .00021366  00000+0  65803-3 0  9999
2 47438  97.3563  68.4904 0009312  75.9124 284.3153 15.33609304164006
LEDSAT                  
1 49069U 21073D   24008.14798542  .00011348  00000+0  54097-3 0  9999
2 49069  97.4606  80.9377 0022731 126.8357 233.4966 15.19036939131962
XW-3 (CAS-9)            
1 50466U 21131B   24008.55665118  .00000636  00000+0  21933-3 0  9995
2 50466  98.5397  94.3781 0003353 237.2968 122.7897 14.39283755106894
TEVEL-3                 
1 50988U 22002E   24008.45722322  .00032443  00000+0  86669-3 0  9990
2 50988  97.4079  80.3865 0004960 219.9840 140.1040 15.38018635110169
TEVEL-8                 
1 50989U 22002F   24008.55131779  .00037445  00000+0  10021-2 0  9997
2 50989  97.4095  80.5620 0004899 218.0204 142.0695 15.37933621110172
TEVEL-5                 
1 50998U 22002Q   24008.57874321  .00038909  00000+0  98516-3 0  9998
2 50998  97.4072  81.2259 0005796 212.1118 147.9776 15.39624618110235
TEVEL-6                 
1 50999U 22002R   24008.57835720  .00038554  00000+0  97699-3 0  9996
2 50999  97.4070  81.2131 0005800 211.8661 148.2234 15.39600914110234
TEVEL-1                 
1 51013U 22002AF  24008.54014594  .00037478  00000+0  10025-2 0  9990
2 51013  97.4069  80.3722 0004807 218.9484 141.1416 15.37948212110174
TEVEL-7                 
1 51062U 22002CG  24008.54797118  .00037030  00000+0  98930-3 0  9990
2 51062  97.4090  80.5288 0004937 218.3294 141.7601 15.37988570110171
TEVEL-4                 
1 51063U 22002CH  24008.56529167  .00036503  00000+0  97953-3 0  9998
2 51063  97.4087  80.4981 0004852 217.7598 142.3307 15.37855547110170
TEVEL-2                 
1 51069U 22002CP  24008.45767258  .00033157  00000+0  88510-3 0  9998
2 51069  97.4076  80.3539 0004923 219.6390 140.4495 15.38037594110163
GREENCUBE               
1 53106U 22080B   24003.05315120 -.00000003  00000+0  00000+0 0  9995
2 53106  70.1387 250.2490 0008280 141.6982 218.4267  6.42557472 34597
CYCLOPS (RS29S)         
1 53373U 22096D   24008.60452451  .00138332  00000+0  12386-2 0  9992
2 53373  97.3972 285.3590 0004790  93.5688 266.6120 15.67892976 79505
MONITOR-1 (RS32S)       
1 53374U 22096E   24008.56620997  .00108656  00000+0  11520-2 0  9995
2 53374  97.3918 284.4902 0005026  96.7302 263.4529 15.63738698 79452
KUZBASS-300 (RS34S)     
1 53375U 22096F   24008.55083774  .00055919  00000+0  88609-3 0  9997
2 53375  97.4003 282.8495 0004228  92.3222 267.8515 15.53221711 79336
UTMN (RS23S)            
1 53376U 22096G   24008.55819901  .00061968  00000+0  90514-3 0  9996
2 53376  97.3980 283.2679 0003835  95.2208 264.9484 15.55442153 79361
MIET-AIS (RS28S)        
1 53377U 22096H   24008.57709822  .00047674  00000+0  81670-3 0  9990
2 53377  97.4018 282.5485 0003559  88.0214 272.1446 15.51077488 79317
KAI-1 (RS26S)           
1 53378U 22096J   24008.55128569  .00036512  00000+0  72529-3 0  9994
2 53378  97.4052 281.5821 0003289  90.6357 269.5269 15.46891541 79249
ISOI (RS19S)            
1 53381U 22096M   24008.58241376  .00048129  00000+0  78646-3 0  9996
2 53381  97.4033 283.1164 0004317  66.1800 293.9905 15.52399100 79355
CUBESX-HSE-2 (RS21S)    
1 53383U 22096P   24008.58527279  .00060910  00000+0  89921-3 0  9997
2 53383  97.3988 283.5580 0005157  63.8897 296.2887 15.55148550 79386
SIREN (RS30S)           
1 53384U 22096Q   24008.60812869  .00043459  00000+0  78501-3 0  9994
2 53384  97.4023 282.5248 0004699  64.0424 296.1311 15.49588478 79311
GEOSCAN-EDELVEIS (RS20S)
1 53385U 22096R   24008.43395128  .00169423  00000+0  11895-2 0  9992
2 53385  97.3946 286.4473 0005619  74.4391 285.7493 15.73652251 79592
CAS-5A (FO-118)         
1 54684U 22167C   24008.59643570  .00016328  00000+0  73854-3 0  9997
2 54684  97.5835 151.0717 0011758 349.1945  10.9035 15.20937255 59826
STRATOSAT-TK 1 (RS52S)  
1 57167U 23091B   24008.61646702  .00009740  00000+0  64829-3 0  9998
2 57167  97.6390  62.5792 0015804 311.8035  48.1842 15.07239298 29332
UMKA 1 (RS40S)          
1 57172U 23091G   24008.58172812  .00003606  00000+0  25561-3 0  9991
2 57172  97.6379  62.3177 0016405 311.9507  48.0320 15.05318503 29316
CUBESX-HSE 3 (RS42S)    
1 57178U 23091N   24008.56672143  .00006798  00000+0  47132-3 0  9990
2 57178  97.6415  62.4315 0017359 305.6090  54.3519 15.05816792 29317
MONITOR-4 (RS57S)       
1 57182U 23091S   24008.58364933  .00004712  00000+0  33024-3 0  9991
2 57182  97.6405  62.3810 0017379 307.0935  52.8703 15.05577569 29310
MONITOR-2 (RS39S)       
1 57184U 23091U   24008.57496719  .00003776  00000+0  26467-3 0  9992
2 57184  97.6407  62.5563 0013594 300.7414  59.2473 15.05746744 29327
SVYATOBOR 1 (RS60S)     
1 57187U 23091X   24008.58447679  .00004512  00000+0  30902-3 0  9995
2 57187  97.6414  62.7003 0013015 298.9382  61.0539 15.06517581 29330
VIZARD-METEO (RS38S)    
1 57189U 23091Z   24008.58533345  .00005705  00000+0  38166-3 0  9998
2 57189  97.6408  62.8339 0011976 297.0697  62.9308 15.07286444 29348
NANOZOND 1 (RS49S)      
1 57190U 23091AA  24008.57581938  .00008509  00000+0  54990-3 0  9998
2 57190  97.6382  62.9322 0010776 303.2854  56.7341 15.08422767 29356
POLYTECH-UNIVERSE 3 (R*)
1 57191U 23091AB  24008.56739220  .00004510  00000+0  31591-3 0  9997
2 57191  97.6375  62.3313 0019523 317.7132  42.2589 15.05586496 29318
UTMN 2 (RS27S)          
1 57203U 23091AP  24008.53816004  .00005689  00000+0  38313-3 0  9991
2 57203  97.6415  62.7414 0012151 297.9720  62.0278 15.07038586 29336
ARCCUBE 1 (RS25S)       
1 57205U 23091AR  24008.56092409  .00010638  00000+0  67944-3 0  9993
2 57205  97.6365  62.9070 0011132 305.1864  54.8321 15.08788844 29351
KUZGTU 1 (RS47S)        
1 57217U 23091AV  24008.56573178  .00006550  00000+0  45492-3 0  9995
2 57217  97.6391  62.3705 0017274 307.0341  52.9304 15.05770497 29314
HADES-D (SO-121)        
1 58567U 23174CY  24008.36646294  .00020745  00000+0  10844-2 0  9998
2 58567  97.4771  85.3504 0015858  73.1796 287.1175 15.15792204  9324
CUTE-1 (CO-55)          
1 27844U 03031E   24008.58050566  .00000455  00000+0  22108-3 0  9990
2 27844  98.6786  17.8664 0008772 248.3428 111.6817 14.23026817 64940
CUBESAT XI-IV (CO-57)   
1 27848U 03031J   24007.96117371  .00000364  00000+0  18278-3 0  9995
2 27848  98.6820  17.5848 0008600 268.0171  92.0022 14.22502011 64661
CUBESAT XI-V            
1 28895U 05043F   24008.36019711  .00001933  00000+0  35560-3 0  9993
2 28895  98.1779 144.3359 0016738 142.4726 217.7650 14.66671575970872
CUTE-1.7+APD II (CO-65) 
1 32785U 08021C   24008.50972138  .00004468  00000+0  41913-3 0  9997
2 32785  97.7337 335.6837 0012744 134.7192 225.5068 14.94436643851469
AAUSAT-II               
1 32788U 08021F   24008.51294460  .00013347  00000+0  82739-3 0  9993
2 32788  97.5805 349.4197 0007876  28.2112 331.9542 15.09846038854025
SEEDS II (CO-66)        
1 32791U 08021J   24008.43728940  .00006522  00000+0  52753-3 0  9993
2 32791  97.6784 341.1339 0010042  90.4722 269.7652 15.00072452852390
SWISSCUBE               
1 35932U 09051B   24008.58734758  .00001318  00000+0  29480-3 0  9996
2 35932  98.4932 248.5607 0008511  91.9900 268.2273 14.58399889759144
BEESAT-1                
1 35933U 09051C   24008.56770104  .00001132  00000+0  25565-3 0  9994
2 35933  98.4860 249.6469 0006728 102.2002 257.9950 14.58221830759215
ITUPSAT1                
1 35935U 09051E   24008.19543243  .00001008  00000+0  23378-3 0  9999
2 35935  98.4959 249.1300 0008936 109.6340 250.5822 14.57224394758813
TISAT 1                 
1 36799U 10035E   24008.59838279  .00006577  00000+0  54444-3 0  9996
2 36799  98.1065 251.3215 0009769  17.9722 342.1843 14.99205838732975
